[{"OBJECT_NAME":"STARLINK-1663","OBJECT_ID":"2020-070D","EPOCH":"2026-03-09T10:57:21.461760","MEAN_MOTION":15.6525795,"ECCENTRICITY":0.00012819,"INCLINATION":53.0432,"RA_OF_ASC_NODE":136.4769,"ARG_OF_PERICENTER":122.703,"MEAN_ANOMALY":237.4108,"EPHEMERIS_TYPE":0,"CLASSIFICATION_TYPE":"U","NORAD_CAT_ID":46535,"ELEMENT_SET_NO":999,"REV_AT_EPOCH":30004,"BSTAR":0.00077752131,"MEAN_MOTION_DOT":0.00078802,"MEAN_MOTION_DDOT":0},{"OBJECT_NAME":"BRO-9","OBJECT_ID":"2023-054H","EPOCH":"2026-03-09T22:52:30.947808","MEAN_MOTION":15.66433569,"ECCENTRICITY":0.00049441,"INCLINATION":97.3049,"RA_OF_ASC_NODE":341.8304,"ARG_OF_PERICENTER":63.4632,"MEAN_ANOMALY":296.7135,"EPHEMERIS_TYPE":0,"CLASSIFICATION_TYPE":"U","NORAD_CAT_ID":56185,"ELEMENT_SET_NO":999,"REV_AT_EPOCH":16343,"BSTAR":0.00055962118,"MEAN_MOTION_DOT":0.00058308,"MEAN_MOTION_DDOT":0}]
